[{"OBJECT_NAME":"SHIJIAN-6 04B (SJ-6 04B)","OBJECT_ID":"2010-051B","EPOCH":"2026-03-09T23:26:29.179104","MEAN_MOTION":14.99121194,"ECCENTRICITY":0.00088219,"INCLINATION":97.8755,"RA_OF_ASC_NODE":73.3683,"ARG_OF_PERICENTER":293.8275,"MEAN_ANOMALY":66.2023,"EPHEMERIS_TYPE":0,"CLASSIFICATION_TYPE":"U","NORAD_CAT_ID":37180,"ELEMENT_SET_NO":999,"REV_AT_EPOCH":84081,"BSTAR":0.00010220627,"MEAN_MOTION_DOT":1.181e-5,"MEAN_MOTION_DDOT":0},{"OBJECT_NAME":"STARLINK-3071","OBJECT_ID":"2021-082T","EPOCH":"2026-03-09T22:19:52.183776","MEAN_MOTION":14.98331789,"ECCENTRICITY":0.00029441,"INCLINATION":69.9986,"RA_OF_ASC_NODE":253.8497,"ARG_OF_PERICENTER":271.7644,"MEAN_ANOMALY":88.3178,"EPHEMERIS_TYPE":0,"CLASSIFICATION_TYPE":"U","NORAD_CAT_ID":49147,"ELEMENT_SET_NO":999,"REV_AT_EPOCH":24700,"BSTAR":2.3521019e-5,"MEAN_MOTION_DOT":1.88e-6,"MEAN_MOTION_DDOT":0}]
